[{"OBJECT_NAME":"SPACEBEE-4","OBJECT_ID":"2018-004AE","EPOCH":"2022-08-19T04:10:18.259680","MEAN_MOTION":15.49833778,"ECCENTRICITY":0.0004956,"INCLINATION":97.3818,"RA_OF_ASC_NODE":316.5898,"ARG_OF_PERICENTER":121.4253,"MEAN_ANOMALY":238.7483,"EPHEMERIS_TYPE":0,"CLASSIFICATION_TYPE":"U","NORAD_CAT_ID":43139,"ELEMENT_SET_NO":999,"REV_AT_EPOCH":25653,"BSTAR":0.001156,"MEAN_MOTION_DOT":0.00064773,"MEAN_MOTION_DDOT":0},{"OBJECT_NAME":"SPACEBEE-3","OBJECT_ID":"2018-004AF","EPOCH":"2022-08-19T05:15:42.971040","MEAN_MOTION":15.68170681,"ECCENTRICITY":0.0002448,"INCLINATION":97.3823,"RA_OF_ASC_NODE":321.7033,"ARG_OF_PERICENTER":181.9583,"MEAN_ANOMALY":178.1669,"EPHEMERIS_TYPE":0,"CLASSIFICATION_TYPE":"U","NORAD_CAT_ID":43140,"ELEMENT_SET_NO":999,"REV_AT_EPOCH":25685,"BSTAR":0.0018361,"MEAN_MOTION_DOT":0.00209144,"MEAN_MOTION_DDOT":0},{"OBJECT_NAME":"SPACEBEE-2","OBJECT_ID":"2018-004AG","EPOCH":"2022-08-19T04:22:38.902944","MEAN_MOTION":15.83917066,"ECCENTRICITY":0.0005724,"INCLINATION":97.381,"RA_OF_ASC_NODE":324.0071,"ARG_OF_PERICENTER":248.5239,"MEAN_ANOMALY":111.5421,"EPHEMERIS_TYPE":0,"CLASSIFICATION_TYPE":"U","NORAD_CAT_ID":43141,"ELEMENT_SET_NO":999,"REV_AT_EPOCH":25698,"BSTAR":0.0024954,"MEAN_MOTION_DOT":0.00590534,"MEAN_MOTION_DDOT":0},{"OBJECT_NAME":"SPACEBEE-7","OBJECT_ID":"2018-099BL","EPOCH":"2022-08-19T03:12:58.373280","MEAN_MOTION":14.97969366,"ECCENTRICITY":0.0013908,"INCLINATION":97.6221,"RA_OF_ASC_NODE":297.8634,"ARG_OF_PERICENTER":51.0835,"MEAN_ANOMALY":309.1626,"EPHEMERIS_TYPE":0,"CLASSIFICATION_TYPE":"U","NORAD_CAT_ID":43816,"ELEMENT_SET_NO":999,"REV_AT_EPOCH":20203,"BSTAR":0.00036919,"MEAN_MOTION_DOT":4.307e-5,"MEAN_MOTION_DDOT":0},{"OBJECT_NAME":"SPACEBEE-5","OBJECT_ID":"2018-099BM","EPOCH":"2022-08-19T04:06:49.980384","MEAN_MOTION":15.02039504,"ECCENTRICITY":0.0007508,"INCLINATION":97.6294,"RA_OF_ASC_NODE":301.2092,"ARG_OF_PERICENTER":59.2523,"MEAN_ANOMALY":300.944,"EPHEMERIS_TYPE":0,"CLASSIFICATION_TYPE":"U","NORAD_CAT_ID":43817,"ELEMENT_SET_NO":999,"REV_AT_EPOCH":20218,"BSTAR":0.00071247,"MEAN_MOTION_DOT":9.298e-5,"MEAN_MOTION_DDOT":0},{"OBJECT_NAME":"SPACEBEE-6","OBJECT_ID":"2018-099BN","EPOCH":"2022-08-19T04:16:48.012672","MEAN_MOTION":14.99132352,"ECCENTRICITY":0.0012364,"INCLINATION":97.625,"RA_OF_ASC_NODE":298.9115,"ARG_OF_PERICENTER":43.7161,"MEAN_ANOMALY":316.5039,"EPHEMERIS_TYPE":0,"CLASSIFICATION_TYPE":"U","NORAD_CAT_ID":43818,"ELEMENT_SET_NO":999,"REV_AT_EPOCH":20223,"BSTAR":0.00041085,"MEAN_MOTION_DOT":4.945e-5,"MEAN_MOTION_DDOT":0},{"OBJECT_NAME":"SPACEBEE-21","OBJECT_ID":"2020-061AE","EPOCH":"2022-08-19T04:47:09.951936","MEAN_MOTION":15.20790722,"ECCENTRICITY":8.5e-5,"INCLINATION":97.447,"RA_OF_ASC_NODE":302.519,"ARG_OF_PERICENTER":76.102,"MEAN_ANOMALY":284.031,"EPHEMERIS_TYPE":0,"CLASSIFICATION_TYPE":"U","NORAD_CAT_ID":46300,"ELEMENT_SET_NO":999,"REV_AT_EPOCH":10806,"BSTAR":0.0009354,"MEAN_MOTION_DOT":0.00020588,"MEAN_MOTION_DDOT":0},{"OBJECT_NAME":"SPACEBEE-20","OBJECT_ID":"2020-061AF","EPOCH":"2022-08-18T03:30:24.936480","MEAN_MOTION":15.20707506,"ECCENTRICITY":8.66e-5,"INCLINATION":97.4495,"RA_OF_ASC_NODE":301.5755,"ARG_OF_PERICENTER":61.2198,"MEAN_ANOMALY":298.9124,"EPHEMERIS_TYPE":0,"CLASSIFICATION_TYPE":"U","NORAD_CAT_ID":46301,"ELEMENT_SET_NO":999,"REV_AT_EPOCH":10790,"BSTAR":0.00096067,"MEAN_MOTION_DOT":0.00021096,"MEAN_MOTION_DDOT":0},{"OBJECT_NAME":"SPACEBEE-15","OBJECT_ID":"2020-061AG","EPOCH":"2022-08-18T04:42:23.368320","MEAN_MOTION":15.21955071,"ECCENTRICITY":8.01e-5,"INCLINATION":97.4472,"RA_OF_ASC_NODE":301.8813,"ARG_OF_PERICENTER":89.8706,"MEAN_ANOMALY":270.2622,"EPHEMERIS_TYPE":0,"CLASSIFICATION_TYPE":"U","NORAD_CAT_ID":46302,"ELEMENT_SET_NO":999,"REV_AT_EPOCH":10793,"BSTAR":0.0011549,"MEAN_MOTION_DOT":0.00026337,"MEAN_MOTION_DDOT":0},{"OBJECT_NAME":"SPACEBEE-19","OBJECT_ID":"2020-061AH","EPOCH":"2022-08-19T04:49:33.192768","MEAN_MOTION":15.21288546,"ECCENTRICITY":8.23e-5,"INCLINATION":97.4475,"RA_OF_ASC_NODE":302.6959,"ARG_OF_PERICENTER":74.4505,"MEAN_ANOMALY":285.6821,"EPHEMERIS_TYPE":0,"CLASSIFICATION_TYPE":"U","NORAD_CAT_ID":46303,"ELEMENT_SET_NO":999,"REV_AT_EPOCH":10807,"BSTAR":0.00096983,"MEAN_MOTION_DOT":0.00021664,"MEAN_MOTION_DDOT":0},{"OBJECT_NAME":"SPACEBEE-18","OBJECT_ID":"2020-061AJ","EPOCH":"2022-08-18T03:49:55.214976","MEAN_MOTION":15.21157748,"ECCENTRICITY":8.08e-5,"INCLINATION":97.4469,"RA_OF_ASC_NODE":301.6262,"ARG_OF_PERICENTER":82.244,"MEAN_ANOMALY":277.8887,"EPHEMERIS_TYPE":0,"CLASSIFICATION_TYPE":"U","NORAD_CAT_ID":46304,"ELEMENT_SET_NO":999,"REV_AT_EPOCH":10791,"BSTAR":0.0010951,"MEAN_MOTION_DOT":0.00024387,"MEAN_MOTION_DDOT":0},{"OBJECT_NAME":"SPACEBEE-10","OBJECT_ID":"2020-061AK","EPOCH":"2022-08-18T03:22:44.765760","MEAN_MOTION":15.24119591,"ECCENTRICITY":7.16e-5,"INCLINATION":97.4482,"RA_OF_ASC_NODE":302.4679,"ARG_OF_PERICENTER":93.2791,"MEAN_ANOMALY":266.8528,"EPHEMERIS_TYPE":0,"CLASSIFICATION_TYPE":"U","NORAD_CAT_ID":46305,"ELEMENT_SET_NO":999,"REV_AT_EPOCH":10796,"BSTAR":0.0012969,"MEAN_MOTION_DOT":0.00031558,"MEAN_MOTION_DDOT":0},{"OBJECT_NAME":"SPACEBEE-17","OBJECT_ID":"2020-061AL","EPOCH":"2022-08-19T04:50:30.482880","MEAN_MOTION":15.21812898,"ECCENTRICITY":7.26e-5,"INCLINATION":97.4476,"RA_OF_ASC_NODE":302.8534,"ARG_OF_PERICENTER":88.2303,"MEAN_ANOMALY":271.9016,"EPHEMERIS_TYPE":0,"CLASSIFICATION_TYPE":"U","NORAD_CAT_ID":46306,"ELEMENT_SET_NO":999,"REV_AT_EPOCH":10812,"BSTAR":0.0010326,"MEAN_MOTION_DOT":0.00023433,"MEAN_MOTION_DDOT":0},{"OBJECT_NAME":"SPACEBEE-11","OBJECT_ID":"2020-061AM","EPOCH":"2022-08-18T10:29:19.685760","MEAN_MOTION":15.23236891,"ECCENTRICITY":6.07e-5,"INCLINATION":97.4477,"RA_OF_ASC_NODE":302.5144,"ARG_OF_PERICENTER":96.3284,"MEAN_ANOMALY":263.8022,"EPHEMERIS_TYPE":0,"CLASSIFICATION_TYPE":"U","NORAD_CAT_ID":46307,"ELEMENT_SET_NO":999,"REV_AT_EPOCH":10799,"BSTAR":0.0013837,"MEAN_MOTION_DOT":0.00032811,"MEAN_MOTION_DDOT":0},{"OBJECT_NAME":"SPACEBEE-16","OBJECT_ID":"2020-061AN","EPOCH":"2022-08-19T04:29:15.646560","MEAN_MOTION":15.21903292,"ECCENTRICITY":7.42e-5,"INCLINATION":97.4479,"RA_OF_ASC_NODE":302.8883,"ARG_OF_PERICENTER":83.731,"MEAN_ANOMALY":276.4011,"EPHEMERIS_TYPE":0,"CLASSIFICATION_TYPE":"U","NORAD_CAT_ID":46308,"ELEMENT_SET_NO":999,"REV_AT_EPOCH":10808,"BSTAR":0.0010211,"MEAN_MOTION_DOT":0.00023232,"MEAN_MOTION_DDOT":0},{"OBJECT_NAME":"SPACEBEE-12","OBJECT_ID":"2020-061AP","EPOCH":"2022-08-18T03:45:51.554016","MEAN_MOTION":15.22796857,"ECCENTRICITY":5.93e-5,"INCLINATION":97.4477,"RA_OF_ASC_NODE":302.115,"ARG_OF_PERICENTER":88.7058,"MEAN_ANOMALY":271.4247,"EPHEMERIS_TYPE":0,"CLASSIFICATION_TYPE":"U","NORAD_CAT_ID":46309,"ELEMENT_SET_NO":999,"REV_AT_EPOCH":10794,"BSTAR":0.0011176,"MEAN_MOTION_DOT":0.00026122,"MEAN_MOTION_DDOT":0},{"OBJECT_NAME":"SPACEBEE-13","OBJECT_ID":"2020-061AQ","EPOCH":"2022-08-18T04:46:13.085184","MEAN_MOTION":15.22446292,"ECCENTRICITY":7.66e-5,"INCLINATION":97.4477,"RA_OF_ASC_NODE":302.0566,"ARG_OF_PERICENTER":92.9538,"MEAN_ANOMALY":267.1786,"EPHEMERIS_TYPE":0,"CLASSIFICATION_TYPE":"U","NORAD_CAT_ID":46310,"ELEMENT_SET_NO":999,"REV_AT_EPOCH":10798,"BSTAR":0.0011932,"MEAN_MOTION_DOT":0.00027613,"MEAN_MOTION_DDOT":0}]