SPACEBEE-4              
1 43139U 18004AE  22231.17382245  .00064773  00000+0  11560-2 0  9996
2 43139  97.3818 316.5898 0004956 121.4253 238.7483 15.49833778256531
SPACEBEE-3              
1 43140U 18004AF  22231.21924735  .00209144  00000+0  18361-2 0  9998
2 43140  97.3823 321.7033 0002448 181.9583 178.1669 15.68170681256855
SPACEBEE-2              
1 43141U 18004AG  22231.18239471  .00590534  00000+0  24954-2 0  9992
2 43141  97.3810 324.0071 0005724 248.5239 111.5421 15.83917066256982
SPACEBEE-7              
1 43816U 18099BL  22231.13400895  .00004307  00000+0  36919-3 0  9993
2 43816  97.6221 297.8634 0013908  51.0835 309.1626 14.97969366202037
SPACEBEE-5              
1 43817U 18099BM  22231.17141181  .00009298  00000+0  71247-3 0  9995
2 43817  97.6294 301.2092 0007508  59.2523 300.9440 15.02039504202187
SPACEBEE-6              
1 43818U 18099BN  22231.17833348  .00004945  00000+0  41085-3 0  9990
2 43818  97.6250 298.9115 0012364  43.7161 316.5039 14.99132352202233
SPACEBEE-21             
1 46300U 20061AE  22231.19942074  .00020588  00000+0  93540-3 0  9994
2 46300  97.4470 302.5190 0000850  76.1020 284.0310 15.20790722108063
SPACEBEE-20             
1 46301U 20061AF  22230.14612195  .00021096  00000+0  96067-3 0  9999
2 46301  97.4495 301.5755 0000866  61.2198 298.9124 15.20707506107902
SPACEBEE-15             
1 46302U 20061AG  22230.19610380  .00026337  00000+0  11549-2 0  9993
2 46302  97.4472 301.8813 0000801  89.8706 270.2622 15.21955071107938
SPACEBEE-19             
1 46303U 20061AH  22231.20107862  .00021664  00000+0  96983-3 0  9997
2 46303  97.4475 302.6959 0000823  74.4505 285.6821 15.21288546108076
SPACEBEE-18             
1 46304U 20061AJ  22230.15966684  .00024387  00000+0  10951-2 0  9991
2 46304  97.4469 301.6262 0000808  82.2440 277.8887 15.21157748107910
SPACEBEE-10             
1 46305U 20061AK  22230.14079590  .00031558  00000+0  12969-2 0  9991
2 46305  97.4482 302.4679 0000716  93.2791 266.8528 15.24119591107968
SPACEBEE-17             
1 46306U 20061AL  22231.20174170  .00023433  00000+0  10326-2 0  9998
2 46306  97.4476 302.8534 0000726  88.2303 271.9016 15.21812898108125
SPACEBEE-11             
1 46307U 20061AM  22230.43703340  .00032811  00000+0  13837-2 0  9990
2 46307  97.4477 302.5144 0000607  96.3284 263.8022 15.23236891107993
SPACEBEE-16             
1 46308U 20061AN  22231.18698665  .00023232  00000+0  10211-2 0  9997
2 46308  97.4479 302.8883 0000742  83.7310 276.4011 15.21903292108082
SPACEBEE-12             
1 46309U 20061AP  22230.15684669  .00026122  00000+0  11176-2 0  9995
2 46309  97.4477 302.1150 0000593  88.7058 271.4247 15.22796857107947
SPACEBEE-13             
1 46310U 20061AQ  22230.19876256  .00027613  00000+0  11932-2 0  9992
2 46310  97.4477 302.0566 0000766  92.9538 267.1786 15.22446292107980
